{"version": 0.6, "generator": "Overpass API 0.7.62.10 2d4cfc48", "osm3s": {"timestamp_osm_base": "2026-02-19T20:45:56Z", "copyright": "The data included in this document is from www.openstreetmap.org. The data is made available under ODbL."}, "elements": [{"type": "node", "id": 488257918, "lat": 50.0630662, "lon": 19.9338487, "tags": {"addr:street": "Szewska", "amenity": "cafe", "name": "Nakielny", "opening_hours": "PH,Mo-Su 09:00-21:00", "shop": "pastry", "website": "https://www.nakielny.pl"}}, {"type": "node", "id": 752177388, "lat": 50.062445, "lon": 19.9317775, "tags": {"amenity": "cafe", "check_date": "2025-12-09", "name": "Cat & Alice"}}, {"type": "node", "id": 1762294622, "lat": 50.0634037, "lon": 19.9306782, "tags": {"addr:city": "Krak\u00f3w", "addr:country": "PL", "addr:housenumber": "10", "addr:street": "Krupnicza", "amenity": "cafe", "check_date": "2025-04-24", "check_date:diet:vegan": "2025-04-24", "check_date:opening_hours": "2025-04-24", "diet:vegan": "yes", "diet:vegetarian": "yes", "internet_access": "wlan", "name": "Karma", "opening_hours": "Mo-We 07:00-19:00; Th,Fr 07:00-21:00; Sa 08:00-21:00; Su 08:00-20:00", "payment:credit_cards": "yes", "payment:debit_cards": "yes", "wheelchair": "no"}}, {"type": "node", "id": 1772019206, "lat": 50.0636916, "lon": 19.9279841, "tags": {"addr:city": "Krak\u00f3w", "addr:country": "PL", "addr:housenumber": "3", "addr:street": "Dolnych M\u0142yn\u00f3w", "amenity": "cafe", "name": "Bun Bakery", "opening_hours": "Mo-Fr 06:00-20:00; Sa,Su 08:00-20:00", "website": "https://www.instagram.com/bunbakery.krakow/"}}, {"type": "node", "id": 1841319900, "lat": 50.0665691, "lon": 19.9226691, "tags": {"addr:city": "Krak\u00f3w", "addr:country": "PL", "addr:housenumber": "15", "addr:street": "Karola Szymanowskiego", "amenity": "cafe", "check_date": "2025-06-09", "name": "Spodek"}}, {"type": "node", "id": 1861988490, "lat": 50.0639685, "lon": 19.9278694, "tags": {"amenity": "cafe", "changing_table": "no", "check_date": "2025-10-25", "name": "Urban", "opening_hours": "Mo-Su 08:00-20:00"}}, {"type": "node", "id": 1861989664, "lat": 50.0636129, "lon": 19.9284039, "tags": {"addr:postcode": "31-123", "amenity": "cafe", "check_date": "2025-08-06", "contact:instagram": "damkacafeandbakery", "name": "Damka", "opening_hours": "Mo-Su 08:00-18:00", "outdoor_seating": "yes"}}, {"type": "node", "id": 1861990920, "lat": 50.0636999, "lon": 19.9289423, "tags": {"addr:city": "Krak\u00f3w", "addr:housenumber": "19a", "addr:postcode": "31-123", "addr:street": "Krupnicza", "amenity": "cafe", "brand": "Green Caff\u00e8 Nero", "brand:wikidata": "Q675808", "cuisine": "coffee_shop", "name": "Green Caff\u00e8 Nero", "opening_hours": "Mo-Su 07:00-23:00", "outdoor_seating": "yes", "phone": "+48506150726", "takeaway": "yes", "website": "https://greencaffenero.pl/"}}, {"type": "node", "id": 1862181390, "lat": 50.0652812, "lon": 19.9274997, "tags": {"amenity": "cafe", "indoor_seating": "yes", "name": "Green Salad Cafe", "opening_hours": "Mo-Su 08:00-17:00", "outdoor_seating": "yes"}}, {"type": "node", "id": 1919045713, "lat": 50.0673525, "lon": 19.9199575, "tags": {"amenity": "cafe", "name": "Trelkovsky Cafe", "opening_hours": "Mo-Su 16:00-03:00", "phone": "+48126331588"}}, {"type": "node", "id": 1926368254, "lat": 50.0680747, "lon": 19.9180034, "tags": {"addr:city": "Krak\u00f3w", "addr:country": "PL", "addr:housenumber": "6", "addr:postcode": "30-051", "addr:street": "Urz\u0119dnicza", "amenity": "cafe", "check_date:opening_hours": "2024-08-15", "name": "S\u0142odka Manufaktura", "opening_hours": "Mo-Fr 10:00-18:00; Sa 10:00-15:00"}}, {"type": "node", "id": 2396896704, "lat": 50.0649059, "lon": 19.9312568, "tags": {"addr:city": "Krak\u00f3w", "addr:housenumber": "22", "addr:postcode": "31-124", "addr:street": "Karmelicka", "amenity": "cafe", "cuisine": "sandwich", "diet:vegetarian": "yes", "name": "Lajkonik", "opening_hours": "Mo-Su 07:00-21:00", "website": "https://www.lajkonik-pik.pl/pl/", "wheelchair": "no"}}, {"type": "node", "id": 2401454389, "lat": 50.0607699, "lon": 19.9192548}, {"type": "node", "id": 2401454394, "lat": 50.0607785, "lon": 19.9194084}, {"type": "node", "id": 2401454457, "lat": 50.0609229, "lon": 19.9192331}, {"type": "node", "id": 2401454458, "lat": 50.0609323, "lon": 19.9193859}, {"type": "node", "id": 2923262015, "lat": 50.0670734, "lon": 19.9206728, "tags": {"amenity": "cafe", "check_date": "2025-12-01", "name": "Cytat Caf\u00e9"}}, {"type": "node", "id": 3037226616, "lat": 50.0637478, "lon": 19.9279626, "tags": {"addr:city": "Krak\u00f3w", "addr:housenumber": "3/4", "addr:postcode": "31-124", "addr:street": "Dolnych M\u0142yn\u00f3w", "amenity": "cafe", "contact:facebook": "cafelisboa.krakow", "contact:instagram": "cafelisboa.krakow", "email": "office@cafelisboa.pl", "name": "Caf\u00e9 Lisboa", "opening_hours": "Mo-Fr 08:00-20:00; Sa,Su 12:00-18:00", "payment:credit_cards": "yes", "payment:debit_cards": "yes", "phone": "+48 608 800540", "website": "https://www.cafelisboa.pl"}}, {"type": "node", "id": 3219579291, "lat": 50.0654135, "lon": 19.9335212, "tags": {"amenity": "cafe", "name": "Bits ^ Beans"}}, {"type": "node", "id": 3368734697, "lat": 50.0643964, "lon": 19.9318095, "tags": {"amenity": "cafe", "brand": "Green Caff\u00e8 Nero", "brand:wikidata": "Q675808", "check_date": "2025-10-25", "cuisine": "coffee_shop", "name": "Green Caff\u00e8 Nero", "takeaway": "yes"}}, {"type": "node", "id": 3519353826, "lat": 50.0584495, "lon": 19.9296035, "tags": {"addr:city": "Krak\u00f3w", "addr:housenumber": "4", "addr:postcode": "31-104", "addr:street": "Felicjanek", "amenity": "cafe", "name": "Massolit", "name:pl": "Massolit", "opening_hours": "Mo-Fr 9:00-20:00; Sa-Su 10:00-20:00", "phone": "+48124324150"}}, {"type": "node", "id": 3528742086, "lat": 50.074007, "lon": 19.9169647, "tags": {"amenity": "cafe", "name": "I Love Coffee"}}, {"type": "node", "id": 4146820322, "lat": 50.0593896, "lon": 19.9297919, "tags": {"amenity": "cafe", "name": "Petite France", "opening_hours": "Tu-Fr 10:00-20:00; Sa-Su 10:00-21:00", "outdoor_seating": "yes", "wheelchair": "yes"}}, {"type": "node", "id": 4250007189, "lat": 50.0604587, "lon": 19.9315185, "tags": {"amenity": "cafe", "indoor_seating": "yes", "name": "Przesada", "opening_hours": "Mo-Fr 08:00-17:00; Sa,Su 10:00-17:00", "outdoor_seating": "yes"}}, {"type": "node", "id": 4294978793, "lat": 50.0635559, "lon": 19.9311641, "tags": {"amenity": "cafe", "check_date:opening_hours": "2023-07-03", "indoor_seating": "yes", "name": "Tektura", "opening_hours": "Mo-Su 08:00-21:00", "outdoor_seating": "yes"}}, {"type": "node", "id": 4543892389, "lat": 50.0730721, "lon": 19.9302485, "tags": {"addr:housenumber": "8", "addr:street": "Mazowiecka", "amenity": "cafe", "check_date": "2025-12-15", "description": "Psia kawiarnia", "name": "Psikawka", "opening_hours": "Mo-Fr 08:00-19:00; Sa, Su 09:00-19:00", "outdoor_seating": "no", "phone": "+48 512 222 412", "website": "https://www.facebook.com/pages/category/Coffee-Shop/Psikawka-Psia-Kawiarnia-548441415505696/"}}, {"type": "node", "id": 4729009612, "lat": 50.0583995, "lon": 19.9325819, "tags": {"amenity": "cafe", "check_date": "2024-08-03", "cuisine": "polish", "internet_access": "wlan", "name": "Gossip", "opening_hours": "Mo-Su 07:30-17:00"}}, {"type": "node", "id": 4729009613, "lat": 50.058434, "lon": 19.9322036, "tags": {"amenity": "cafe", "check_date": "2025-08-05", "name": "Napnap Bistro", "opening_hours": "Mo-Su 08:00-17:00"}}, {"type": "node", "id": 4884535935, "lat": 50.0624045, "lon": 19.9350362, "tags": {"addr:city": "Krak\u00f3w", "addr:housenumber": "8", "addr:postcode": "31-010", "addr:street": "Szewska", "amenity": "cafe", "brand": "Costa", "brand:wikidata": "Q608845", "cuisine": "coffee_shop", "name": "Lajkonik", "opening_hours": "Mo-Su 07:00-20:00", "phone": "+48 885 513 310", "takeaway": "yes", "website": "https://lajkonik-pik.pl/en/shop/8-szewska/"}}, {"type": "node", "id": 5627217621, "lat": 50.0634086, "lon": 19.9307625, "tags": {"amenity": "cafe", "brand": "Starbucks", "brand:wikidata": "Q37158", "brand:wikipedia": "en:Starbucks", "check_date": "2025-11-13", "cuisine": "coffee_shop", "indoor_seating": "yes", "internet_access": "wlan", "name": "Starbucks", "official_name": "Starbucks Coffee", "opening_hours": "Mo-Su 07:00-21:00", "outdoor_seating": "yes", "takeaway": "yes", "website": "https://www.starbucks.co.uk/store-locator/49542-269724/krakow,-krupnicza"}}, {"type": "node", "id": 5832000104, "lat": 50.0752284, "lon": 19.9111137, "tags": {"amenity": "cafe", "check_date": "2025-06-09", "contact:instagram": "kombinat_krakow", "email": "hello@kombinatkrakow.pl", "facebook": "KombinatKrakow", "internet_access": "wlan", "internet_access:fee": "customers", "name": "Kombinat Bistro & Coffee", "opening_hours": "Mo-Fr 09:00-18:00; Sa 09:00-16:00; Su 10:00-16:00", "payment:cash": "yes", "payment:credit_cards": "yes", "payment:debit_cards": "yes", "phone": "+48 690 142 001", "website": "https://kombinatkrakow.pl", "wheelchair": "yes"}}, {"type": "node", "id": 6877566253, "lat": 50.0641873, "lon": 19.9246917, "tags": {"amenity": "cafe", "check_date": "2025-12-20", "inscription": "Pojnar\u00f3wka art & coffee bar", "name": "Pojnar\u00f3wka", "opening_hours": "Mo-Fr 07:30-20:00; Sa-Su 12:00-19:00", "phone": "+48  606 338 139", "website": "https://www.facebook.com/pojnarowka.kawiarnia/"}}, {"type": "node", "id": 6896594585, "lat": 50.062102, "lon": 19.9337178, "tags": {"amenity": "cafe", "indoor_seating": "yes", "name": "Magia", "name:en": "Magia", "opening_hours": "Mo-Su 09:00-23:00", "outdoor_seating": "yes", "wheelchair": "no"}}, {"type": "node", "id": 7023537762, "lat": 50.0602074, "lon": 19.9240074, "tags": {"amenity": "cafe"}}, {"type": "node", "id": 7603613792, "lat": 50.0638986, "lon": 19.9279076, "tags": {"amenity": "cafe", "check_date": "2025-04-09", "check_date:opening_hours": "2025-04-09", "instagram": "https://www.instagram.com/body.espressobar/", "level": "1", "name": "Body Espresso Bar", "opening_hours": "08:00-20:00", "outdoor_seating": "yes", "payment:blik": "yes", "payment:contactless": "yes", "payment:mastercard": "yes", "payment:visa": "yes", "phone": "+48 601 738 806", "website": "https://www.facebook.com/fikakrakow/"}}, {"type": "node", "id": 8128853208, "lat": 50.0590832, "lon": 19.9304282, "tags": {"addr:city": "Krak\u00f3w", "addr:housenumber": "17", "addr:postcode": "31-108", "addr:street": "Smole\u0144sk", "amenity": "cafe", "name": "Massolit Bakery & Cafe", "opening_hours": "Mo-Fr 08:00-17:00; Sa 09:00-16:00; Su 10:00-16:00", "outdoor_seating": "no", "payment:credit_cards": "yes", "payment:debit_cards": "yes", "phone": "+48 124 264 312", "website": "https://www.facebook.com/MassolitBakeryCafe"}}, {"type": "node", "id": 8526620330, "lat": 50.0677296, "lon": 19.9339082, "tags": {"amenity": "cafe", "name": "Kaffe Bageri Stockholm", "opening_hours": "Mo-Th 07:30-20:00; Sa 09:00-21:00; Su 09:00-18:00; Fr 07:30-21:00", "website": "https://www.facebook.com/kaffestockholm/"}}, {"type": "node", "id": 9209174788, "lat": 50.067486, "lon": 19.9134553, "tags": {"addr:city": "Krak\u00f3w", "addr:housenumber": "8", "addr:street": "Kawiory", "amenity": "cafe", "level": "0", "name": "Sowilo caf\u00e9", "opening_hours": "Mo-Su 08:00-18:00"}}, {"type": "node", "id": 9817828903, "lat": 50.0640607, "lon": 19.9321187, "tags": {"amenity": "cafe", "name": "Kocia Kawiarnia", "opening_hours": "Mo-Su 10:00-20:00"}}, {"type": "node", "id": 10203052027, "lat": 50.0574492, "lon": 19.9312885, "tags": {"amenity": "cafe", "name": "Indalo Cafe", "opening_hours": "Mo-Su 08:00-22:00"}}, {"type": "node", "id": 10232127589, "lat": 50.0665594, "lon": 19.9212442, "tags": {"amenity": "cafe", "level": "6", "name": "Limonkova", "opening_hours": "Mo-Fr 08:00-17:00", "website": "http://limonkova.pl/"}}, {"type": "node", "id": 11067571906, "lat": 50.0676812, "lon": 19.9291693, "tags": {"amenity": "cafe", "name": "Szalej Cafe", "opening_hours": "Mo-Fr 08:00-18:00; Sa-Su 08:30-16:30", "wheelchair": "no"}}, {"type": "node", "id": 11081791843, "lat": 50.0752843, "lon": 19.9259998, "tags": {"amenity": "cafe", "name": "Public Order", "wheelchair": "yes"}}, {"type": "node", "id": 11088652984, "lat": 50.0740617, "lon": 19.9167783, "tags": {"amenity": "cafe", "name:signed": "no"}}, {"type": "node", "id": 11120059035, "lat": 50.0700021, "lon": 19.9208061, "tags": {"amenity": "cafe", "check_date": "2024-11-26", "name": "L\u00e9a Bistro", "opening_hours": "Mo-Su 08:00-22:00", "outdoor_seating": "yes"}}, {"type": "node", "id": 11120059042, "lat": 50.0716116, "lon": 19.91957, "tags": {"amenity": "cafe", "name": "Fidryga\u0142ki", "opening_hours": "Mo-Fr 09:00-19:00; Sa-Su 10:00-19:00"}}, {"type": "node", "id": 11193062587, "lat": 50.0672611, "lon": 19.9287967, "tags": {"amenity": "cafe", "check_date": "2025-07-30", "name": "Cinnalove"}}, {"type": "node", "id": 11230972437, "lat": 50.0675189, "lon": 19.9330152, "tags": {"addr:housenumber": "1a", "addr:postcode": "31-135", "addr:street": "Stefana Batorego", "amenity": "cafe", "cuisine": "coffee_shop", "name": "Astrid", "opening_hours": "Mo-Fr 08:00-15:00; Sa-Su 08:00-16:00"}}, {"type": "node", "id": 11474477308, "lat": 50.0695106, "lon": 19.9235257, "tags": {"amenity": "cafe", "cuisine": "coffee_shop", "name": "S\u0142odko i czule", "opening_hours": "Mo-Fr 09:00-21:00; Sa 10:00-21:00; Su 10:00-19:00"}}, {"type": "node", "id": 11474497383, "lat": 50.0712974, "lon": 19.9267228, "tags": {"amenity": "cafe", "cuisine": "coffee_shop", "name": "Urban Coffee", "opening_hours": "Mo-Sa 08:00-20:00; Su 09:00-20:00"}}, {"type": "node", "id": 11474497385, "lat": 50.0714052, "lon": 19.9248962, "tags": {"amenity": "cafe", "cuisine": "coffee_shop", "name": "Caf\u00e9 Feliz"}}, {"type": "node", "id": 11476949187, "lat": 50.0600926, "lon": 19.9345586, "tags": {"amenity": "cafe", "name": "Nakielny"}}, {"type": "node", "id": 11481032611, "lat": 50.0673401, "lon": 19.9330545, "tags": {"amenity": "cafe", "cuisine": "coffee_shop", "name": "Baho"}}, {"type": "node", "id": 11795424234, "lat": 50.0621556, "lon": 19.9347572, "tags": {"amenity": "cafe", "check_date": "2025-12-09", "name": "Yulier"}}, {"type": "node", "id": 12003819512, "lat": 50.0645339, "lon": 19.9288078, "tags": {"addr:housenumber": "11", "addr:street": "J\u00f3zefa Szujskiego", "amenity": "cafe", "check_date": "2025-08-06", "name": "The White Bear Coffee", "opening_hours": "Mo-Su 07:30-21:30", "phone": "+48663749369", "website": "https://thewhitebearcoffee.pl/"}}, {"type": "node", "id": 12227448455, "lat": 50.0637429, "lon": 19.9261747, "tags": {"amenity": "cafe", "check_date": "2025-03-07", "check_date:opening_hours": "2025-03-07", "diet:vegan": "only", "name": "Raw Nest", "opening_hours": "Mo-Su 08:00-20:00"}}, {"type": "node", "id": 12368003540, "lat": 50.0747769, "lon": 19.9274766, "tags": {"addr:city": "Krak\u00f3w", "addr:housenumber": "29", "addr:postcode": "30-019", "addr:street": "Mazowiecka", "amenity": "cafe", "name": "Smacznej Kawusi \u2014 cafe specialty"}}, {"type": "node", "id": 12376365334, "lat": 50.0718019, "lon": 19.9085414, "tags": {"addr:city": "Krak\u00f3w", "addr:floor": "0", "addr:housenumber": "90A", "addr:street": "Juliusza Lea", "amenity": "cafe", "check_date": "2025-06-25", "cuisine": "coffee_shop", "internet_access": "no", "level": "0", "name": "The Place caf\u00e9 to go", "opening_hours": "Mo-Fr 08:00-19:00; Sa-Su 10:00-19:00", "outdoor_seating": "yes", "payment:cash": "yes", "payment:credit_cards": "yes", "payment:debit_cards": "yes", "wheelchair": "yes"}}, {"type": "node", "id": 12389229494, "lat": 50.0635277, "lon": 19.9203367, "tags": {"amenity": "cafe", "diet:vegan": "no", "diet:vegetarian": "yes", "name": "Pastelove Cafe", "opening_hours": "Mo-Th 08:00-17:00; Fr 08:00-16:00", "payment:credit_cards": "yes", "payment:debit_cards": "yes", "wheelchair": "yes"}}, {"type": "node", "id": 12466871643, "lat": 50.0587561, "lon": 19.9246226, "tags": {"amenity": "cafe", "check_date": "2025-01-01", "name": "Italo"}}, {"type": "node", "id": 12469130970, "lat": 50.0645122, "lon": 19.9284954, "tags": {"amenity": "cafe", "check_date": "2025-01-02", "name": "Fable Cafe"}}, {"type": "node", "id": 12660140657, "lat": 50.0668877, "lon": 19.9144011, "tags": {"addr:city": "Krak\u00f3w", "addr:housenumber": "8", "addr:postcode": "30-055", "addr:street": "Miechowska", "amenity": "cafe", "check_date": "2025-11-19", "name": "Matcha"}}, {"type": "node", "id": 12765736704, "lat": 50.0633949, "lon": 19.9301636, "tags": {"amenity": "cafe", "cuisine": "coffee_shop", "name": "Sweet Heart", "opening_hours": "Mo-Su 10:00-19:00"}}, {"type": "node", "id": 12900461902, "lat": 50.0651949, "lon": 19.9143562, "tags": {"amenity": "cafe", "check_date": "2025-08-02", "check_date:opening_hours": "2025-08-02", "name": "Strefa Park", "opening_hours": "Mo-Su 10:00-20:00"}}, {"type": "node", "id": 12944226865, "lat": 50.0575947, "lon": 19.9310954, "tags": {"amenity": "cafe", "name": "Kult"}}, {"type": "node", "id": 12979273441, "lat": 50.0642684, "lon": 19.9296215, "tags": {"addr:city": "Krak\u00f3w", "addr:country": "PL", "addr:housenumber": "12", "addr:postcode": "31-124", "addr:street": "Rajska", "amenity": "cafe", "contact:facebook": "https://www.facebook.com/people/Amsel/61575634411597/", "contact:instagram": "https://www.instagram.com/amsel_cafe/", "contact:phone": "+48 507 248877", "diet:vegetarian": "yes", "indoor_seating": "yes", "name": "Amsel", "outdoor_seating": "yes"}}, {"type": "node", "id": 12980100736, "lat": 50.0674235, "lon": 19.928219, "tags": {"amenity": "cafe", "check_date": "2025-07-05", "name": "Przyjemno\u015bci! Caf\u00e9"}}, {"type": "node", "id": 13052492851, "lat": 50.063323, "lon": 19.9281913, "tags": {"amenity": "cafe", "check_date": "2025-08-06", "cuisine": "bubble_tea", "name": "Bubblejoy!"}}, {"type": "node", "id": 13345935940, "lat": 50.0673215, "lon": 19.9196585, "tags": {"amenity": "cafe", "check_date": "2025-12-01", "name": "Bagietka"}}, {"type": "node", "id": 13364032868, "lat": 50.0747506, "lon": 19.9231997, "tags": {"amenity": "cafe", "check_date": "2025-12-09", "name": "MOCna!"}}, {"type": "node", "id": 13376147507, "lat": 50.0591207, "lon": 19.9346843, "tags": {"amenity": "cafe", "check_date": "2025-12-14", "name": "Gubbio Caff\u00e8", "takeaway": "only"}}, {"type": "node", "id": 13378932203, "lat": 50.0710107, "lon": 19.9341172, "tags": {"amenity": "cafe", "check_date": "2025-12-15", "name": "Sztuka Room"}}, {"type": "node", "id": 13468255501, "lat": 50.0674126, "lon": 19.9147443, "tags": {"addr:housenumber": "84", "addr:street": "Czarnowiejska", "amenity": "cafe", "check_date": "2026-02-13", "contact:facebook": "p/Brio-Coffee-Pastries-61562698028510", "contact:instagram": "brio.coffee.pastries", "cuisine": "bagel;cake;coffee_shop;sandwich;tea", "name": "BRIO Coffee & Pastries", "opening_hours": "Mo-Fr 08:00-16:45; Sa 10:00-13:00", "website": "https://briocafe.pl/", "website:menu": "https://briocafe.pl/menu/"}}, {"type": "node", "id": 13566162836, "lat": 50.063528, "lon": 19.9341648, "tags": {"addr:floor": "0", "amenity": "cafe", "check_date": "2026-02-15", "level": "0", "name": "Bunkier Cafe", "payment:cash": "yes", "payment:credit_cards": "yes", "payment:debit_cards": "yes", "smoking": "isolated"}}, {"type": "way", "id": 231816274, "nodes": [2401454457, 2401454458, 2401454394, 2401454389, 2401454457], "tags": {"addr:city": "Krak\u00f3w", "addr:country": "PL", "addr:housenumber": "11a", "addr:street": "Aleja 3 Maja", "amenity": "cafe", "building": "retail", "name": "Organic Coffee & more", "opening_hours": "Mo-Su 10:00-18:00"}}]}