{"version": 0.6, "generator": "Overpass API 0.7.62.10 2d4cfc48", "osm3s": {"timestamp_osm_base": "2026-02-20T15:45:04Z", "copyright": "The data included in this document is from www.openstreetmap.org. The data is made available under ODbL."}, "elements": [{"type": "node", "id": 258234549, "lat": 50.0747804, "lon": 19.9101542, "tags": {"name": "O! Shop", "shop": "convenience"}}, {"type": "node", "id": 873821873, "lat": 50.0667965, "lon": 19.9220191, "tags": {"name": "Avita", "opening_hours": "Mo-Fr 06:00-22:00; Sa 07:00-19:00", "shop": "convenience"}}, {"type": "node", "id": 974197826, "lat": 50.0714772, "lon": 19.9141668, "tags": {"brand": "Carrefour Express", "brand:wikidata": "Q2940190", "brand:wikipedia": "fr:Carrefour Express", "name": "Carrefour Express", "opening_hours": "Mo-Sa 07:00-22:00; Su 08:00-20:00", "operator": "Groupe Carrefour", "operator:wikidata": "Q3117359", "operator:wikipedia": "fr:Groupe Carrefour", "shop": "convenience"}}, {"type": "node", "id": 974197831, "lat": 50.0714289, "lon": 19.914977, "tags": {"brand": "\u017babka", "brand:wikidata": "Q2589061", "check_date": "2024-11-07", "check_date:opening_hours": "2024-11-07", "name": "\u017babka", "name:pl": "\u017babka", "name:uk": "\u0416\u0430\u0431\u043a\u0430", "opening_hours": "Mo-Sa 06:00-23:00; Su 09:00-21:00", "payment:mastercard": "yes", "payment:visa": "yes", "ref": "ZC181", "shop": "convenience", "website": "https://www.zabka.pl/znajdz-sklep/ID0C181-krakow-ul-kijowska-12-lok-lu-i/"}}, {"type": "node", "id": 1415949187, "lat": 50.069111, "lon": 19.9304941, "tags": {"addr:city": "Krak\u00f3w", "addr:housenumber": "18a", "addr:postcode": "31-137", "addr:street": "Henryka Siemiradzkiego", "name": "U Moniki", "noname": "yes", "shop": "convenience"}}, {"type": "node", "id": 1642484763, "lat": 50.0722234, "lon": 19.9323851, "tags": {"addr:city": "Krak\u00f3w", "addr:country": "PL", "addr:housenumber": "75", "addr:postcode": "31-158", "addr:street": "Krowoderska", "brand": "Carrefour Express", "brand:wikidata": "Q2940190", "brand:wikipedia": "fr:Carrefour Express", "check_date": "2025-12-15", "name": "Carrefour Express", "opening_hours": "Mo-Fr 07:00-22:00; Sa 09:00-17:00", "operator": "Groupe Carrefour", "operator:wikidata": "Q3117359", "operator:wikipedia": "fr:Groupe Carrefour", "shop": "convenience"}}, {"type": "node", "id": 1862650799, "lat": 50.066645, "lon": 19.9290919, "tags": {"check_date": "2023-11-18", "level": "0", "name": "Kocyk", "opening_hours": "24/7", "payment:credit_cards": "yes", "payment:debit_cards": "yes", "shop": "convenience", "wheelchair": "no"}}, {"type": "node", "id": 1875046629, "lat": 50.0725501, "lon": 19.917947, "tags": {"addr:city": "Krak\u00f3w", "addr:country": "PL", "addr:housenumber": "49", "addr:postcode": "30-052", "addr:street": "Kr\u00f3lewska", "brand": "Carrefour Express", "brand:wikidata": "Q2940190", "check_date:opening_hours": "2024-08-10", "name": "Carrefour Express", "opening_hours": "Mo-Sa 06:00-22:00; Su 08:00-22:00", "payment:credit_cards": "yes", "payment:debit_cards": "yes", "shop": "convenience", "website": "https://www.carrefour.pl", "wheelchair": "limited"}}, {"type": "node", "id": 1875304204, "lat": 50.0738466, "lon": 19.9174464, "tags": {"addr:city": "Krak\u00f3w", "addr:country": "PL", "addr:housenumber": "82A", "addr:street": "Kazimierza Wielkiego", "brand": "\u017babka", "brand:wikidata": "Q2589061", "brand:wikipedia": "pl:\u017babka (sie\u0107 sklep\u00f3w)", "name": "\u017babka", "name:pl": "\u017babka", "name:uk": "\u0416\u0430\u0431\u043a\u0430", "opening_hours": "06:00-23:00", "payment:blik": "yes", "payment:cash": "yes", "payment:coins": "yes", "payment:contactless": "yes", "payment:mastercard": "yes", "payment:visa": "yes", "shop": "convenience", "website": "https://zabka.pl/"}}, {"type": "node", "id": 1878175717, "lat": 50.0716346, "lon": 19.9198715, "tags": {"brand": "Lewiatan", "brand:wikidata": "Q11755396", "brand:wikipedia": "pl:Lewiatan (sie\u0107 handlowa)", "check_date": "2025-06-09", "internet_access": "no", "name": "Lewiatan", "opening_hours": "Mo-Fr 07:00-21:00; Sa 07:30-19:00", "shop": "convenience", "website": "https://www.lewiatan.pl/znajdz-sklep/lewiatan-krakow-krakow-krowodrza-krolewska-52", "wheelchair": "no"}}, {"type": "node", "id": 1892027916, "lat": 50.071767, "lon": 19.9235212, "tags": {"brand": "\u017babka", "brand:wikidata": "Q2589061", "brand:wikipedia": "pl:\u017babka (sie\u0107 sklep\u00f3w)", "check_date": "2025-07-29", "name": "\u017babka", "name:pl": "\u017babka", "name:uk": "\u0416\u0430\u0431\u043a\u0430", "opening_hours": "Mo-Su 06:00-22:00", "payment:blik": "yes", "payment:cash": "yes", "payment:coins": "yes", "payment:contactless": "yes", "payment:mastercard": "yes", "payment:visa": "yes", "shop": "convenience", "website": "https://zabka.pl/"}}, {"type": "node", "id": 1917767026, "lat": 50.0658275, "lon": 19.9343651, "tags": {"addr:city": "Krak\u00f3w", "addr:country": "PL", "addr:housenumber": "2", "addr:postcode": "31-140", "addr:street": "\u0141obzowska", "brand": "\u017babka", "brand:wikidata": "Q2589061", "brand:wikipedia": "pl:\u017babka (sie\u0107 sklep\u00f3w)", "name": "\u017babka", "name:pl": "\u017babka", "name:uk": "\u0416\u0430\u0431\u043a\u0430", "opening_hours": "Mo-Sa 06:00-23:00; Su 10:00-23:00", "payment:blik": "yes", "payment:cash": "yes", "payment:coins": "yes", "payment:contactless": "yes", "payment:mastercard": "yes", "payment:visa": "yes", "shop": "convenience", "website": "https://zabka.pl/", "wheelchair": "no"}}, {"type": "node", "id": 2000515371, "lat": 50.0607202, "lon": 19.9350376, "tags": {"air_conditioning": "yes", "brand": "Carrefour Express", "brand:wikidata": "Q2940190", "brand:wikipedia": "fr:Carrefour Express", "level": "0;0.5", "name": "Carrefour Express", "opening_hours": "24/7", "operator": "Groupe Carrefour", "operator:wikidata": "Q3117359", "operator:wikipedia": "fr:Groupe Carrefour", "shop": "convenience", "start_date": "2024", "wheelchair": "limited"}}, {"type": "node", "id": 2389966921, "lat": 50.0708186, "lon": 19.9348956, "tags": {"name": "Maciek", "opening_hours": "Mo-Sa 07:00-22:00; Su 10:00-22:00", "shop": "convenience"}}, {"type": "node", "id": 2389966929, "lat": 50.0709739, "lon": 19.9346879, "tags": {"brand": "\u017babka", "brand:wikidata": "Q2589061", "brand:wikipedia": "pl:\u017babka (sie\u0107 sklep\u00f3w)", "name": "\u017babka", "name:pl": "\u017babka", "name:uk": "\u0416\u0430\u0431\u043a\u0430", "opening_hours": "Mo-Su 06:00-23:00", "payment:blik": "yes", "payment:cash": "yes", "payment:coins": "yes", "payment:contactless": "yes", "payment:mastercard": "yes", "payment:visa": "yes", "shop": "convenience", "website": "https://zabka.pl/"}}, {"type": "node", "id": 2454259029, "lat": 50.0677973, "lon": 19.9179046, "tags": {"addr:city": "Krak\u00f3w", "addr:housenumber": "73F", "addr:postcode": "30-049", "addr:street": "Czarnowiejska", "brand": "Stokrotka Express", "brand:wikidata": "Q110801119", "name": "Stokrotka Express", "opening_hours": "Mo-Fr 06:00-23:45; Sa 06:00-23:40; PH off", "shop": "convenience", "website": "https://stokrotka.pl/nasze-sklepy/krakow-ul-czarnowiejska-73f-5731.html"}}, {"type": "node", "id": 2624917134, "lat": 50.0698288, "lon": 19.9205192, "tags": {"brand": "\u017babka", "brand:wikidata": "Q2589061", "brand:wikipedia": "pl:\u017babka (sie\u0107 sklep\u00f3w)", "name": "\u017babka", "name:pl": "\u017babka", "name:uk": "\u0416\u0430\u0431\u043a\u0430", "opening_hours": "Su 09:00-21:00; Mo-Sa 06:00-22:00", "payment:blik": "yes", "payment:cash": "yes", "payment:coins": "yes", "payment:contactless": "yes", "payment:mastercard": "yes", "payment:visa": "yes", "ref": "Z6161", "shop": "convenience", "website": "https://www.zabka.pl/znajdz-sklep/ID06161-krakow-ul-juliusza-lea-12b-lok-lu1-i-m1/"}}, {"type": "node", "id": 2720625274, "lat": 50.0695074, "lon": 19.9236889, "tags": {"addr:housenumber": "5", "addr:postcode": "30-046", "addr:street": "Juliusza Lea", "brand": "abc", "brand:wikidata": "Q11683985", "name": "abc", "opening_hours": "Mo-Sa 07:00-21:00; Su 10:00-20:00", "shop": "convenience"}}, {"type": "node", "id": 3036639036, "lat": 50.0628064, "lon": 19.9275447, "tags": {"brand": "\u017babka", "brand:wikidata": "Q2589061", "brand:wikipedia": "pl:\u017babka (sie\u0107 sklep\u00f3w)", "name": "\u017babka", "name:pl": "\u017babka", "name:uk": "\u0416\u0430\u0431\u043a\u0430", "opening_hours": "Mo-Sa 06:00-23:00; Su 09:00-21:00", "payment:blik": "yes", "payment:cash": "yes", "payment:coins": "yes", "payment:contactless": "yes", "payment:mastercard": "yes", "payment:visa": "yes", "shop": "convenience", "website": "https://zabka.pl/", "wheelchair": "no"}}, {"type": "node", "id": 3036696421, "lat": 50.0639676, "lon": 19.9273348, "tags": {"brand": "\u017babka", "brand:wikidata": "Q2589061", "brand:wikipedia": "pl:\u017babka (sie\u0107 sklep\u00f3w)", "name": "\u017babka", "name:pl": "\u017babka", "name:uk": "\u0416\u0430\u0431\u043a\u0430", "opening_hours": "Mo-Sa 06:00-23:00; Su 10:00-22:00", "payment:blik": "yes", "payment:cash": "yes", "payment:coins": "yes", "payment:contactless": "yes", "payment:mastercard": "yes", "payment:visa": "yes", "shop": "convenience", "website": "https://zabka.pl/"}}, {"type": "node", "id": 3037092837, "lat": 50.0629616, "lon": 19.9264253, "tags": {"addr:housenumber": "2", "addr:street": "Skarbowa", "brand": "Lewiatan", "brand:wikidata": "Q11755396", "brand:wikipedia": "pl:Lewiatan (sie\u0107 handlowa)", "name": "Lewiatan", "opening_hours": "Mo-Fr 06:30-21:30; Sa 07:00-20:00", "payment:debit_cards": "yes", "shop": "convenience", "website": "https://www.lewiatan.pl/znajdz-sklep/lewiatan-krakow-ul-skarbowa-2"}}, {"type": "node", "id": 3176873642, "lat": 50.0627593, "lon": 19.9341992, "tags": {"brand": "\u017babka", "brand:wikidata": "Q2589061", "brand:wikipedia": "pl:\u017babka (sie\u0107 sklep\u00f3w)", "check_date": "2024-06-10", "name": "\u017babka", "name:pl": "\u017babka", "name:uk": "\u0416\u0430\u0431\u043a\u0430", "opening_hours": "24/7", "payment:blik": "yes", "payment:cash": "yes", "payment:coins": "yes", "payment:contactless": "yes", "payment:mastercard": "yes", "payment:visa": "yes", "shop": "convenience", "website": "https://zabka.pl/"}}, {"type": "node", "id": 3368741951, "lat": 50.0639772, "lon": 19.9322113, "tags": {"brand": "Carrefour Express", "brand:wikidata": "Q2940190", "brand:wikipedia": "fr:Carrefour Express", "name": "Carrefour Express", "opening_hours": "24/7", "operator": "Groupe Carrefour", "operator:wikidata": "Q3117359", "operator:wikipedia": "fr:Groupe Carrefour", "shop": "convenience", "wheelchair": "no"}}, {"type": "node", "id": 3474979593, "lat": 50.0679743, "lon": 19.9183727, "tags": {"addr:city": "Krak\u00f3w", "addr:country": "PL", "addr:housenumber": "33", "addr:postcode": "30-049", "addr:street": "Fryderyka Chopina", "brand": "\u017babka", "brand:wikidata": "Q2589061", "brand:wikipedia": "pl:\u017babka (sie\u0107 sklep\u00f3w)", "name": "\u017babka", "name:pl": "\u017babka", "name:uk": "\u0416\u0430\u0431\u043a\u0430", "opening_hours": "Mo-Sa 06:00-23:00; Su,PH 08:00-23:00", "payment:blik": "yes", "payment:cash": "yes", "payment:coins": "yes", "payment:contactless": "yes", "payment:mastercard": "yes", "payment:visa": "yes", "phone": "+48 34 377 00 03", "shop": "convenience", "website": "https://zabka.pl/", "wheelchair": "limited"}}, {"type": "node", "id": 3656292435, "lat": 50.0668934, "lon": 19.9297283, "tags": {"brand": "\u017babka", "brand:wikidata": "Q2589061", "brand:wikipedia": "pl:\u017babka (sie\u0107 sklep\u00f3w)", "level": "0", "name": "\u017babka", "name:pl": "\u017babka", "name:uk": "\u0416\u0430\u0431\u043a\u0430", "opening_hours": "Mo-Sa 06:00-23:00; PH,Su 13:00-21:00", "payment:blik": "yes", "payment:cash": "yes", "payment:coins": "yes", "payment:contactless": "yes", "payment:mastercard": "yes", "payment:visa": "yes", "shop": "convenience", "website": "https://zabka.pl/"}}, {"type": "node", "id": 3801849157, "lat": 50.0601363, "lon": 19.9343141, "tags": {"check_date": "2024-08-03", "name": "Na Rogatce", "opening_hours": "Mo-Sa 07:00-22:00", "shop": "convenience"}}, {"type": "node", "id": 4692967548, "lat": 50.0748288, "lon": 19.9119391, "tags": {"addr:city": "Krak\u00f3w", "addr:housenumber": "140", "addr:street": "Kazimierza Wielkiego", "brand": "\u017babka", "brand:wikidata": "Q2589061", "brand:wikipedia": "pl:\u017babka (sie\u0107 sklep\u00f3w)", "check_date": "2025-06-09", "internet_access": "no", "name": "\u017babka", "name:pl": "\u017babka", "name:uk": "\u0416\u0430\u0431\u043a\u0430", "opening_hours": "Mo-Sa 06:00-22:00; PH,Su 11:00-22:00", "payment:cash": "yes", "payment:credit_cards": "yes", "payment:debit_cards": "yes", "phone": "+48 61 856 37 00", "shop": "convenience", "website": "https://zabka.pl/", "wheelchair": "no"}}, {"type": "node", "id": 4729002779, "lat": 50.0575001, "lon": 19.9307078, "tags": {"brand": "\u017babka", "brand:wikidata": "Q2589061", "brand:wikipedia": "pl:\u017babka (sie\u0107 sklep\u00f3w)", "check_date": "2024-08-03", "check_date:opening_hours": "2022-01-27", "name": "\u017babka", "name:pl": "\u017babka", "name:uk": "\u0416\u0430\u0431\u043a\u0430", "opening_hours": "Mo-Su 06:00-23:00", "payment:blik": "yes", "payment:cash": "yes", "payment:coins": "yes", "payment:contactless": "yes", "payment:mastercard": "yes", "payment:visa": "yes", "shop": "convenience", "website": "https://zabka.pl/"}}, {"type": "node", "id": 4729009614, "lat": 50.0583748, "lon": 19.9320673, "tags": {"brand": "\u017babka", "brand:wikidata": "Q2589061", "name": "\u017babka", "name:pl": "\u017babka", "name:uk": "\u0416\u0430\u0431\u043a\u0430", "opening_hours": "Mo-Sa 06:00-20:00; Su 11:00-20:00", "shop": "convenience", "website": "https://www.zabka.pl"}}, {"type": "node", "id": 4738313996, "lat": 50.0716367, "lon": 19.9093185, "tags": {"addr:city": "Krak\u00f3w", "addr:floor": "0", "addr:housenumber": "86", "addr:street": "Juliusza Lea", "check_date": "2025-06-09", "internet_access": "no", "level": "0", "name": "Alpo", "opening_hours": "Mo-Fr 07:00-22:00; Sa 08:00-22:00; Su off", "payment:cash": "yes", "payment:credit_cards": "yes", "payment:debit_cards": "yes", "shop": "convenience", "wheelchair": "limited"}}, {"type": "node", "id": 4866637805, "lat": 50.0727047, "lon": 19.9348769, "tags": {"brand": "Carrefour Express", "brand:wikidata": "Q2940190", "brand:wikipedia": "fr:Carrefour Express", "name": "Carrefour Express", "opening_hours": "Mo-Sa 06:30-22:00, Su 09:00-17:00", "operator": "Groupe Carrefour", "operator:wikidata": "Q3117359", "operator:wikipedia": "fr:Groupe Carrefour", "shop": "convenience"}}, {"type": "node", "id": 4951209664, "lat": 50.0720846, "lon": 19.9078167, "tags": {"addr:city": "Krak\u00f3w", "addr:housenumber": "99", "addr:street": "Juliusza Lea", "brand": "\u017babka", "brand:wikidata": "Q2589061", "brand:wikipedia": "pl:\u017babka (sie\u0107 sklep\u00f3w)", "check_date": "2025-06-25", "check_date:opening_hours": "2024-11-25", "internet_access": "no", "name": "\u017babka", "name:pl": "\u017babka", "name:uk": "\u0416\u0430\u0431\u043a\u0430", "opening_hours": "Mo-Su 06:00-23:00", "payment:blik": "yes", "payment:cash": "yes", "payment:coins": "yes", "payment:contactless": "yes", "payment:mastercard": "yes", "payment:visa": "yes", "ref": "Z6131", "shop": "convenience", "website": "https://www.zabka.pl/znajdz-sklep/ID06131-krakow-ul-j-lea-99-lok-3/", "wheelchair": "no"}}, {"type": "node", "id": 5162823369, "lat": 50.0706441, "lon": 19.9165494}, {"type": "node", "id": 5162823370, "lat": 50.0705948, "lon": 19.9165386}, {"type": "node", "id": 5162823371, "lat": 50.070599, "lon": 19.9164948}, {"type": "node", "id": 5162823372, "lat": 50.0706483, "lon": 19.9165057}, {"type": "node", "id": 5260493112, "lat": 50.0738634, "lon": 19.9334909, "tags": {"addr:city": "Krak\u00f3w", "addr:housenumber": "4", "addr:postcode": "30-001", "addr:street": "\u015al\u0105ska", "brand": "\u017babka", "brand:wikidata": "Q2589061", "brand:wikipedia": "pl:\u017babka (sie\u0107 sklep\u00f3w)", "name": "\u017babka", "name:pl": "\u017babka", "name:uk": "\u0416\u0430\u0431\u043a\u0430", "opening_hours": "Mo-Sa 06:00-23:00; Su 11:00-20:00", "payment:blik": "yes", "payment:cash": "yes", "payment:coins": "yes", "payment:contactless": "yes", "payment:mastercard": "yes", "payment:visa": "yes", "ref": "Z0813", "shop": "convenience", "website": "https://www.zabka.pl/znajdz-sklep/ID00813-krakow-slaska-4/", "wheelchair": "limited"}}, {"type": "node", "id": 5299855121, "lat": 50.0681334, "lon": 19.9274266, "tags": {"name": "\u017babka", "shop": "convenience"}}, {"type": "node", "id": 5628709078, "lat": 50.0693601, "lon": 19.9115776, "tags": {"check_date:opening_hours": "2024-11-07", "name": "\u017babka", "opening_hours": "Mo-Fr 06:00-22:00; Sa 09:00-21:00", "shop": "convenience"}}, {"type": "node", "id": 5819058226, "lat": 50.0744441, "lon": 19.9353101, "tags": {"brand": "\u017babka", "brand:wikidata": "Q2589061", "brand:wikipedia": "pl:\u017babka (sie\u0107 sklep\u00f3w)", "check_date:opening_hours": "2023-06-28", "name": "\u017babka", "name:pl": "\u017babka", "name:uk": "\u0416\u0430\u0431\u043a\u0430", "opening_hours": "Mo-Sa 06:00-23:00; Su 10:00-20:00", "payment:blik": "yes", "payment:cash": "yes", "payment:coins": "yes", "payment:contactless": "yes", "payment:mastercard": "yes", "payment:visa": "yes", "ref": "Z4686", "shop": "convenience", "website": "https://www.zabka.pl/znajdz-sklep/ID04686-krakow-lubelska-31/", "wheelchair": "limited"}}, {"type": "node", "id": 5927697006, "lat": 50.0687817, "lon": 19.926661, "tags": {"addr:city": "Krak\u00f3w", "addr:housenumber": "70", "addr:postcode": "31-128", "addr:street": "Karmelicka", "brand": "\u017babka", "brand:wikidata": "Q2589061", "brand:wikipedia": "pl:\u017babka (sie\u0107 sklep\u00f3w)", "check_date:opening_hours": "2025-03-18", "name": "\u017babka", "name:pl": "\u017babka", "name:uk": "\u0416\u0430\u0431\u043a\u0430", "opening_hours": "Mo-Su,PH 06:00-23:00", "payment:blik": "yes", "payment:cash": "yes", "payment:coins": "yes", "payment:contactless": "yes", "payment:mastercard": "yes", "payment:visa": "yes", "ref": "Z6457", "shop": "convenience", "website": "https://zabka.pl/", "wheelchair": "no"}}, {"type": "node", "id": 6307183186, "lat": 50.0740101, "lon": 19.9351775, "tags": {"name": "Avita", "opening_hours": "Mo-Fr 06:00-21:00; Sa 07:00-19:00", "shop": "convenience", "wheelchair": "yes"}}, {"type": "node", "id": 6501633844, "lat": 50.0746698, "lon": 19.9231417, "tags": {"brand": "\u017babka", "brand:wikidata": "Q2589061", "brand:wikipedia": "pl:\u017babka (sie\u0107 sklep\u00f3w)", "name": "\u017babka", "name:pl": "\u017babka", "name:uk": "\u0416\u0430\u0431\u043a\u0430", "opening_hours": "Mo-Sa 06:00-23:00; Su,PH 12:00-20:00", "payment:blik": "yes", "payment:cash": "yes", "payment:coins": "yes", "payment:contactless": "yes", "payment:mastercard": "yes", "payment:visa": "yes", "ref": "Z4735", "shop": "convenience", "website": "https://www.zabka.pl/znajdz-sklep/ID04735-krakow-rzeczna-13-lok-u-1/"}}, {"type": "node", "id": 6512045585, "lat": 50.0690712, "lon": 19.9328409, "tags": {"brand": "\u017babka", "brand:wikidata": "Q2589061", "name": "\u017babka", "name:pl": "\u017babka", "name:uk": "\u0416\u0430\u0431\u043a\u0430", "opening_hours": "Mo-Sa 06:00-23:00", "shop": "convenience"}}, {"type": "node", "id": 6534309593, "lat": 50.0728818, "lon": 19.9304777, "tags": {"addr:housenumber": "4/6", "addr:street": "Mazowiecka", "check_date:opening_hours": "2022-05-26", "level": "0", "name": "PSS Spo\u0142em Zgoda", "opening_hours": "Mo-Fr 06:30-20:00; Sa 08:00-15:00", "operator": "PSS Spo\u0142em", "payment:credit_cards": "yes", "payment:debit_cards": "yes", "shop": "convenience"}}, {"type": "node", "id": 6558502388, "lat": 50.0673758, "lon": 19.9142123, "tags": {"addr:city": "Krak\u00f3w", "addr:housenumber": "2", "addr:street": "Kawiory", "brand": "\u017babka", "brand:wikidata": "Q2589061", "brand:wikipedia": "pl:\u017babka (sie\u0107 sklep\u00f3w)", "check_date": "2025-10-11", "level": "0", "name": "\u017babka", "name:pl": "\u017babka", "name:uk": "\u0416\u0430\u0431\u043a\u0430", "opening_hours": "Mo-Sa 06:00-23:00; PH,Su 11:00-20:00", "payment:blik": "yes", "payment:cash": "yes", "payment:coins": "yes", "payment:contactless": "yes", "payment:mastercard": "yes", "payment:visa": "yes", "shop": "convenience", "website": "https://zabka.pl/", "wheelchair": "no"}}, {"type": "node", "id": 6572355038, "lat": 50.0623483, "lon": 19.9356369, "tags": {"brand": "Carrefour Express", "brand:wikidata": "Q2940190", "brand:wikipedia": "fr:Carrefour Express", "name": "Carrefour Express", "opening_hours": "Mo-Sa 07:00-00:00; Su 10:00-00:00", "shop": "convenience"}}, {"type": "node", "id": 6572367148, "lat": 50.0635411, "lon": 19.9348509, "tags": {"brand": "\u017babka", "brand:wikidata": "Q2589061", "brand:wikipedia": "pl:\u017babka (sie\u0107 sklep\u00f3w)", "check_date:opening_hours": "2023-04-16", "name": "\u017babka", "name:pl": "\u017babka", "name:uk": "\u0416\u0430\u0431\u043a\u0430", "opening_hours": "Mo-Su 06:00-23:00", "payment:blik": "yes", "payment:cash": "yes", "payment:coins": "yes", "payment:contactless": "yes", "payment:mastercard": "yes", "payment:visa": "yes", "shop": "convenience", "website": "https://zabka.pl/"}}, {"type": "node", "id": 6713056916, "lat": 50.0723495, "lon": 19.9169943, "tags": {"brand": "\u017babka", "brand:wikidata": "Q2589061", "brand:wikipedia": "pl:\u017babka (sie\u0107 sklep\u00f3w)", "check_date": "2025-06-09", "check_date:opening_hours": "2025-03-27", "internet_access": "no", "name": "\u017babka", "name:pl": "\u017babka", "name:uk": "\u0416\u0430\u0431\u043a\u0430", "opening_hours": "Mo-Sa 06:00-23:00; Su 10:00-20:00", "payment:blik": "yes", "payment:cash": "yes", "payment:coins": "yes", "payment:contactless": "yes", "payment:mastercard": "yes", "payment:visa": "yes", "shop": "convenience", "website": "https://zabka.pl/", "wheelchair": "no"}}, {"type": "node", "id": 6713069985, "lat": 50.0738094, "lon": 19.9157447, "tags": {"addr:city": "Krak\u00f3w", "addr:housenumber": "57", "addr:street": "Kr\u00f3lewska", "brand": "\u017babka", "brand:wikidata": "Q2589061", "brand:wikipedia": "pl:\u017babka (sie\u0107 sklep\u00f3w)", "check_date": "2025-06-09", "check_date:opening_hours": "2023-04-28", "internet_access": "no", "name": "\u017babka", "name:pl": "\u017babka", "name:uk": "\u0416\u0430\u0431\u043a\u0430", "opening_hours": "Mo-Sa 06:00-23:00; Su 12:00-22:00", "payment:cash": "yes", "payment:coins": "yes", "payment:credit_cards": "yes", "payment:debit_cards": "yes", "phone": "+48 61 856 37 00", "shop": "convenience", "website": "https://zabka.pl", "wheelchair": "yes"}}, {"type": "node", "id": 6724901759, "lat": 50.0609381, "lon": 19.9297981, "tags": {"addr:city": "Krak\u00f3w", "addr:housenumber": "1/L2", "addr:postcode": "31-110", "addr:street": "Czapskich", "brand": "\u017babka", "brand:wikidata": "Q2589061", "brand:wikipedia": "pl:\u017babka (sie\u0107 sklep\u00f3w)", "name": "\u017babka", "name:pl": "\u017babka", "name:uk": "\u0416\u0430\u0431\u043a\u0430", "opening_hours": "Mo-Sa 06:00-23:00; Su 19:00-21:00", "payment:blik": "yes", "payment:cash": "yes", "payment:coins": "yes", "payment:contactless": "yes", "payment:mastercard": "yes", "payment:notes": "yes", "payment:visa": "yes", "ref": "Z5582", "shop": "convenience", "website": "https://zabka.pl/", "wheelchair": "no"}}, {"type": "node", "id": 6855893434, "lat": 50.0647462, "lon": 19.9277087, "tags": {"brand": "\u017babka", "brand:wikidata": "Q2589061", "brand:wikipedia": "pl:\u017babka (sie\u0107 sklep\u00f3w)", "name": "\u017babka", "name:pl": "\u017babka", "name:uk": "\u0416\u0430\u0431\u043a\u0430", "payment:blik": "yes", "payment:cash": "yes", "payment:coins": "yes", "payment:contactless": "yes", "payment:mastercard": "yes", "payment:visa": "yes", "shop": "convenience", "website": "https://zabka.pl/"}}, {"type": "node", "id": 6905519383, "lat": 50.0672559, "lon": 19.9283919, "tags": {"brand": "\u017babka", "brand:wikidata": "Q2589061", "brand:wikipedia": "pl:\u017babka (sie\u0107 sklep\u00f3w)", "level": "0", "name": "\u017babka", "name:pl": "\u017babka", "name:uk": "\u0416\u0430\u0431\u043a\u0430", "opening_hours": "Mo-Sa 06:00-23:00; Su 09:00-21:00", "payment:blik": "yes", "payment:cash": "yes", "payment:coins": "yes", "payment:contactless": "yes", "payment:mastercard": "yes", "payment:visa": "yes", "shop": "convenience", "website": "https://zabka.pl/", "wheelchair": "no"}}, {"type": "node", "id": 7655463385, "lat": 50.0687155, "lon": 19.9099155, "tags": {"addr:floor": "0", "addr:housenumber": "41", "addr:street": "Kawiory", "brand": "\u017babka", "brand:wikidata": "Q2589061", "brand:wikipedia": "pl:\u017babka (sie\u0107 sklep\u00f3w)", "check_date": "2024-10-26", "internet_access": "no", "level": "0", "name": "\u017babka", "name:pl": "\u017babka", "name:uk": "\u0416\u0430\u0431\u043a\u0430", "opening_hours": "Mo-Sa 06:00-23:00; PH,Su 12:00-21:00", "payment:blik": "yes", "payment:cash": "yes", "payment:coins": "yes", "payment:contactless": "yes", "payment:mastercard": "yes", "payment:visa": "yes", "shop": "convenience", "website": "https://zabka.pl/"}}, {"type": "node", "id": 8221101493, "lat": 50.0594876, "lon": 19.9274249, "tags": {"addr:city": "Krak\u00f3w", "addr:housenumber": "1", "addr:postcode": "31-108", "addr:street": "Retoryka", "brand": "\u017babka", "brand:wikidata": "Q2589061", "brand:wikipedia": "pl:\u017babka (sie\u0107 sklep\u00f3w)", "level": "-1", "name": "\u017babka", "name:pl": "\u017babka", "name:uk": "\u0416\u0430\u0431\u043a\u0430", "opening_hours": "Mo-Sa 06:00-23:00; Su 10:00-21:00", "payment:blik": "yes", "payment:cash": "yes", "payment:coins": "yes", "payment:contactless": "yes", "payment:mastercard": "yes", "payment:visa": "yes", "shop": "convenience", "website": "https://zabka.pl/"}}, {"type": "node", "id": 8309270431, "lat": 50.0574972, "lon": 19.9231572, "tags": {"brand": "\u017babka", "brand:wikidata": "Q2589061", "brand:wikipedia": "pl:\u017babka (sie\u0107 sklep\u00f3w)", "check_date": "2026-02-07", "name": "\u017babka", "name:pl": "\u017babka", "name:uk": "\u0416\u0430\u0431\u043a\u0430", "payment:blik": "yes", "payment:cash": "yes", "payment:coins": "yes", "payment:contactless": "yes", "payment:mastercard": "yes", "payment:visa": "yes", "shop": "convenience", "website": "https://zabka.pl/"}}, {"type": "node", "id": 9081528481, "lat": 50.0639363, "lon": 19.9332613, "tags": {"brand": "Carrefour Express", "brand:wikidata": "Q2940190", "check_date": "2024-11-11", "name": "Carrefour Express", "opening_hours": "Mo-Su 00:10-23:50", "shop": "convenience", "wheelchair": "yes"}}, {"type": "node", "id": 9110850406, "lat": 50.0710985, "lon": 19.9164709, "tags": {"brand": "\u017babka", "brand:wikidata": "Q2589061", "check_date": "2025-01-09", "internet_access": "no", "name": "\u017babka", "name:pl": "\u017babka", "name:uk": "\u0416\u0430\u0431\u043a\u0430", "opening_hours": "Mo-Sa 06:00-23:00; Su 08:00-22:00", "payment:cash": "yes", "payment:coins": "yes", "payment:mastercard": "yes", "payment:visa": "yes", "ref": "Z7089", "shop": "convenience", "website": "https://www.zabka.pl/znajdz-sklep/ID07089-krakow-ul-nowowiejska-37-lok-lu-i/"}}, {"type": "node", "id": 9422195700, "lat": 50.0644889, "lon": 19.928268, "tags": {"addr:city": "Krak\u00f3w", "addr:housenumber": "22", "addr:postcode": "31-124", "addr:street": "Rajska", "description": "Sklep spo\u017cywczy z artyku\u0142ami korea\u0144skimi", "name": "My Korea - Shop & Bistro", "payment:cash": "yes", "payment:credit_cards": "yes", "shop": "convenience"}}, {"type": "node", "id": 9538630908, "lat": 50.0704036, "lon": 19.9248221, "tags": {"brand": "Carrefour Express", "brand:wikidata": "Q2940190", "brand:wikipedia": "fr:Carrefour Express", "name": "Carrefour Express", "opening_hours": "Mo-Fr 06:00-23:00; Sa 08:00-20:00", "shop": "convenience"}}, {"type": "node", "id": 9702466990, "lat": 50.0676032, "lon": 19.9125664, "tags": {"addr:floor": "0", "addr:housenumber": "20", "addr:street": "Kawiory", "check_date": "2024-10-08", "check_date:opening_hours": "2024-03-13", "level": "0", "name": "StudentMarket", "opening_hours:signed": "no", "shop": "convenience"}}, {"type": "node", "id": 10158120717, "lat": 50.0731698, "lon": 19.9202287, "tags": {"addr:city": "Krak\u00f3w", "addr:city:simc": "0950463", "addr:housenumber": "51", "addr:postcode": "30-074", "addr:street": "Kazimierza Wielkiego", "brand": "\u017babka", "brand:wikidata": "Q2589061", "check_date": "2025-06-09", "name": "\u017babka", "name:pl": "\u017babka", "name:uk": "\u0416\u0430\u0431\u043a\u0430", "opening_hours": "Mo-Sa 06:00-23:00; Su 10:00-22:00", "payment:cash": "yes", "payment:credit_cards": "yes", "payment:debit_cards": "yes", "shop": "convenience", "source:addr": "gugik.gov.pl", "wheelchair": "limited"}}, {"type": "node", "id": 10316444363, "lat": 50.0658721, "lon": 19.9250114, "tags": {"brand": "\u017babka", "brand:wikidata": "Q2589061", "check_date": "2024-05-19", "level": "0", "name": "\u017babka", "name:pl": "\u017babka", "name:uk": "\u0416\u0430\u0431\u043a\u0430", "shop": "convenience", "wheelchair": "yes"}}, {"type": "node", "id": 11028523489, "lat": 50.0604386, "lon": 19.931366, "tags": {"brand": "\u017babka", "brand:wikidata": "Q2589061", "name": "\u017babka", "name:pl": "\u017babka", "name:uk": "\u0416\u0430\u0431\u043a\u0430", "opening_hours": "Mo-Sa 06:00-23:00; Su 10:00-22:00", "shop": "convenience"}}, {"type": "node", "id": 11193058150, "lat": 50.0686472, "lon": 19.9273194, "tags": {"check_date": "2025-07-30", "level": "-1", "name": "Exotic City", "shop": "convenience"}}, {"type": "node", "id": 11193090978, "lat": 50.0663153, "lon": 19.9299514, "tags": {"brand": "Carrefour Express", "brand:wikidata": "Q2940190", "check_date": "2025-10-24", "name": "Carrefour Express", "shop": "convenience"}}, {"type": "node", "id": 11193155858, "lat": 50.0646066, "lon": 19.932003, "tags": {"brand": "\u017babka", "brand:wikidata": "Q2589061", "check_date": "2025-04-19", "check_date:opening_hours": "2025-04-19", "name": "\u017babka", "name:pl": "\u017babka", "name:uk": "\u0416\u0430\u0431\u043a\u0430", "opening_hours": "Mo-Sa 06:00-23:00; Su 10:00-20:00", "shop": "convenience"}}, {"type": "node", "id": 11481069451, "lat": 50.0735455, "lon": 19.9121925, "tags": {"air_conditioning": "yes", "brand": "\u017babka", "brand:wikidata": "Q2589061", "check_date": "2025-06-09", "internet_access": "no", "name": "\u017babka", "name:pl": "\u017babka", "name:uk": "\u0416\u0430\u0431\u043a\u0430", "opening_hours": "Mo-Sa 06:00-23:00; Su 10:00-21:00", "payment:cash": "yes", "payment:credit_cards": "yes", "payment:debit_cards": "yes", "shop": "convenience", "wheelchair": "limited"}}, {"type": "node", "id": 11589822277, "lat": 50.0715894, "lon": 19.9102443, "tags": {"brand": "\u017babka", "brand:wikidata": "Q2589061", "check_date": "2025-06-09", "name": "\u017babka", "name:pl": "\u017babka", "name:uk": "\u0416\u0430\u0431\u043a\u0430", "opening_hours": "Mo-Sa 06:00-23:00; Su 10:00-22:00", "payment:cash": "yes", "payment:credit_cards": "yes", "payment:debit_cards": "yes", "phone": "+48 61 856 37 00", "ref": "Z7341", "shop": "convenience", "website": "https://www.zabka.pl/znajdz-sklep/ID07341-krakow-ul-juliusza-lea-64/", "wheelchair": "yes"}}, {"type": "node", "id": 11920614117, "lat": 50.0702046, "lon": 19.9139402, "tags": {"brand": "\u017babka", "brand:wikidata": "Q2589061", "name": "\u017babka", "name:pl": "\u017babka", "name:uk": "\u0416\u0430\u0431\u043a\u0430", "opening_hours": "Mo-Sa 06:00-23:00; Su 09:00-21:00", "shop": "convenience"}}, {"type": "node", "id": 12073000369, "lat": 50.0717678, "lon": 19.92861, "tags": {"check_date": "2024-12-01", "name": "\u017babka", "opening_hours": "Mo-Sa 06:00-23:00; Su 08:00-22:00", "shop": "convenience"}}, {"type": "node", "id": 12155877040, "lat": 50.0574035, "lon": 19.9306073, "tags": {"check_date": "2024-09-04", "name": "Ante Smaki Sycylii", "shop": "convenience"}}, {"type": "node", "id": 12337221910, "lat": 50.0702019, "lon": 19.9183543, "tags": {"name": "Ibernia", "shop": "convenience"}}, {"type": "node", "id": 12368003541, "lat": 50.07498, "lon": 19.9267443, "tags": {"addr:city": "Krak\u00f3w", "addr:housenumber": "37", "addr:postcode": "30-019", "addr:street": "Mazowiecka", "brand": "\u017babka", "brand:wikidata": "Q2589061", "name": "\u017babka", "name:pl": "\u017babka", "name:uk": "\u0416\u0430\u0431\u043a\u0430", "opening_hours": "Mo-Sa 06:00-23:00; Su 08:00-22:00", "operator": "\u017babka", "ref": "Z6245", "shop": "convenience", "website": "https://www.zabka.pl/znajdz-sklep/ID06245-krakow-ul-mazowiecka-37/"}}, {"type": "node", "id": 12759518568, "lat": 50.0610389, "lon": 19.9213513, "tags": {"brand": "\u017babka", "brand:wikidata": "Q2589061", "name": "\u017babka", "name:pl": "\u017babka", "name:uk": "\u0416\u0430\u0431\u043a\u0430", "opening_hours": "Mo-Sa 06:00-23:00; Su 11:00-21:00", "shop": "convenience", "wheelchair": "yes"}}, {"type": "node", "id": 12906328633, "lat": 50.0630485, "lon": 19.9077807, "tags": {"brand": "\u017babka", "brand:wikidata": "Q2589061", "brand:wikipedia": "pl:\u017babka (sie\u0107 sklep\u00f3w)", "name": "\u017babka", "name:pl": "\u017babka", "name:uk": "\u0416\u0430\u0431\u043a\u0430", "opening_hours": "Mo-Sa 06:00-23:00", "shop": "convenience"}}, {"type": "node", "id": 13015738701, "lat": 50.0625171, "lon": 19.9352376, "tags": {"name": "Carrefour Express", "shop": "convenience"}}, {"type": "node", "id": 13265455587, "lat": 50.0583163, "lon": 19.9324172, "tags": {"brand": "Carrefour Express", "brand:wikidata": "Q2940190", "check_date": "2025-10-28", "name": "Carrefour Express", "shop": "convenience"}}, {"type": "node", "id": 13302024673, "lat": 50.0635613, "lon": 19.9310277, "tags": {"brand": "\u017babka", "brand:wikidata": "Q2589061", "check_date": "2025-11-13", "name": "\u017babka", "name:pl": "\u017babka", "name:uk": "\u0416\u0430\u0431\u043a\u0430", "shop": "convenience"}}, {"type": "node", "id": 13364384635, "lat": 50.0622227, "lon": 19.93168, "tags": {"brand": "\u017babka", "brand:wikidata": "Q2589061", "check_date": "2025-12-09", "name": "\u017babka", "name:pl": "\u017babka", "name:uk": "\u0416\u0430\u0431\u043a\u0430", "shop": "convenience"}}, {"type": "node", "id": 13378897329, "lat": 50.0741628, "lon": 19.9318959, "tags": {"brand": "\u017babka", "brand:wikidata": "Q2589061", "check_date": "2025-12-15", "name": "\u017babka", "name:pl": "\u017babka", "name:uk": "\u0416\u0430\u0431\u043a\u0430", "shop": "convenience"}}, {"type": "way", "id": 531939795, "nodes": [5162823372, 5162823369, 5162823370, 5162823371, 5162823372], "tags": {"building": "retail", "shop": "convenience"}}]}