{"version": 0.6, "generator": "Overpass API 0.7.62.10 2d4cfc48", "osm3s": {"timestamp_osm_base": "2026-02-19T21:20:43Z", "copyright": "The data included in this document is from www.openstreetmap.org. The data is made available under ODbL."}, "elements": [{"type": "node", "id": 278057695, "lat": 50.0531432, "lon": 19.9336431, "tags": {"access": "customers", "barrier": "gate", "ele": "205.5", "name": "Smocza Jama", "name:en": "Dragon's Den", "name:hu": "S\u00e1rk\u00e1nybarlang bej\u00e1rata", "name:pl": "Smocza Jama", "natural": "cave_entrance", "ref:ckkp": "MA00882"}}, {"type": "node", "id": 280361103, "lat": 50.0394416, "lon": 19.9008795, "tags": {"access": "no", "cave:depth": "3.2", "cave:length": "82", "description": "Jaskinia niebezpieczna, zagrodzona p\u0142otkiem, cz\u0119ste obrywy ska\u0142.", "name": "Jaskinia Jasna", "natural": "cave_entrance", "ref": "J.BK-02.1", "source": "http://jaskiniepolski.pgi.gov.pl/Details/Information/2082", "wikidata": "Q86675626", "wikipedia": "pl:Jaskinia Jasna (Zakrz\u00f3wek)"}}, {"type": "node", "id": 340013012, "lat": 50.19395, "lon": 19.7745318, "tags": {"alt_name": "Jaskinia Jerzmanowicka", "fee": "yes", "name": "Jaskinia Nietoperzowa", "natural": "cave_entrance", "website": "http://www.nietoperzowa.ojcow.pl/", "wikidata": "Q11721250", "wikipedia": "pl:Jaskinia Nietoperzowa"}}, {"type": "node", "id": 498493667, "lat": 50.0314381, "lon": 19.8633378, "tags": {"name": "Kawerna Kostrze", "natural": "cave_entrance", "source": "yahoo"}}, {"type": "node", "id": 498493668, "lat": 50.0306324, "lon": 19.8588554, "tags": {"name": "Kawerna Pod Kapliczk\u0105", "natural": "cave_entrance"}}, {"type": "node", "id": 498493669, "lat": 50.0358862, "lon": 19.858328, "tags": {"access": "yes", "fee": "no", "name": "Kawerna Wielkanoc", "natural": "cave_entrance", "source": "yahoo"}}, {"type": "node", "id": 498493671, "lat": 50.0341626, "lon": 19.8693934, "tags": {"name": "Kawerna Bodz\u00f3w 5", "natural": "cave_entrance", "source": "yahoo"}}, {"type": "node", "id": 506322939, "lat": 50.0341968, "lon": 19.8839404, "tags": {"fee": "no", "name": "Kawerna Pychowice I", "natural": "cave_entrance", "source": "wikipedia"}}, {"type": "node", "id": 506322940, "lat": 50.0339322, "lon": 19.8844917, "tags": {"access": "no", "fee": "no", "name": "Kawerna Pychowice I", "natural": "cave_entrance"}}, {"type": "node", "id": 538687105, "lat": 50.1649772, "lon": 19.7036299, "tags": {"cave:depth": "8.5", "cave:difficulty": "easy", "cave:length": "143", "ele": "410", "fee": "no", "name": "Jaskinia \u017barska", "natural": "cave_entrance", "source:position": "GPS z kom\u00f3rki, potwierdzony szacowaniem odleg\u0142o\u015bci od \u015bcie\u017cek", "wikidata": "Q11721309", "wikipedia": "pl:Jaskinia \u017barska"}}, {"type": "node", "id": 1350761190, "lat": 50.2016328, "lon": 19.8188973, "tags": {"alt_name": "Jaskinia \u0141okietka", "charge": "30 PLN", "fee": "yes", "name": "Grota \u0141okietka", "natural": "cave_entrance", "old_name": "Grota Kr\u00f3lewska", "ref:ckkp": "MA00177", "url": "https://www.youtube.com/watch?v=aXQK3Y_neJA", "wikidata": "Q11721307", "wikipedia": "pl:Jaskinia \u0141okietka"}}, {"type": "node", "id": 1357643971, "lat": 50.1315331, "lon": 19.9185889, "tags": {"addr:city": "Zielonki", "addr:postcode": "32-087", "addr:street": "Garlicka", "name": "Jaskinia Zielonkowska", "natural": "cave_entrance", "source": "https://geotyda.pl/miejsca/kra/jaskinia_zielonkowska.php", "source:name": "http://panoramy.zbooy.pl/360/cat/~Jaskinia%20Zielonkowska/p"}}, {"type": "node", "id": 1357752673, "lat": 50.1968429, "lon": 19.8317497, "tags": {"archaeological_site": "settlement", "barrier": "gate", "fee": "yes", "heritage": "2", "heritage:operator": "nid", "heritage:website": "http://www.ojcowskiparknarodowy.pl/main/jaskinia_ciemna.html", "historic": "archaeological_site", "historic:civilization": "prehistoric", "historic:period": "stone-age", "material": "metal", "name": "Jaskinia Ciemna", "natural": "cave_entrance", "nid:inscription_date": "1924", "tourism": "attraction", "wheelchair": "no", "wikidata": "Q11721196", "wikipedia": "pl:Jaskinia Ciemna"}}, {"type": "node", "id": 1357805915, "lat": 50.1747002, "lon": 19.8066183, "tags": {"name": "Jaskinia Wierzchowska G\u00f3rna", "natural": "cave_entrance", "short_name": "Jaskinia Wierzchowska", "wikidata": "Q11721281", "wikipedia": "pl:Jaskinia Wierzchowska G\u00f3rna"}}, {"type": "node", "id": 1357805920, "lat": 50.1703913, "lon": 19.8057149, "tags": {"alt_name": "Jaskinia Wierzchowska Dolna", "name": "Jaskinia Mamutowa", "natural": "cave_entrance", "wikidata": "Q11721231", "wikipedia": "pl:Jaskinia Mamutowa"}}, {"type": "node", "id": 1357805921, "lat": 50.1731712, "lon": 19.8063181, "tags": {"alt_name": "Jaskinia Wierzchowska \u015arednia", "name": "Jaskinia Dzika", "natural": "cave_entrance", "wikidata": "Q11721199", "wikipedia": "pl:Jaskinia Dzika"}}, {"type": "node", "id": 1357805922, "lat": 50.1749211, "lon": 19.8068457, "tags": {"name": "Jaskinia Wierzchowska G\u00f3rna", "natural": "cave_entrance", "short_name": "Jaskinia Wierzchowska"}}, {"type": "node", "id": 1637530368, "lat": 50.1408256, "lon": 19.8490832, "tags": {"name": "Jaskinia Borsucza", "natural": "cave_entrance"}}, {"type": "node", "id": 1765339430, "lat": 50.1919851, "lon": 19.7795768, "tags": {"name": "Jaskinia na Tomasz\u00f3wkach", "natural": "cave_entrance", "website": "http://www.sktj.pl/epimenides/jura/tomasz_p.html"}}, {"type": "node", "id": 1765339431, "lat": 50.1906036, "lon": 19.7727296, "tags": {"name": "Jaskinia \u0141abajowa", "natural": "cave_entrance", "website": "http://www.sktj.pl/epimenides/jura/lab_p.html"}}, {"type": "node", "id": 1976078447, "lat": 50.0130076, "lon": 19.7893397, "tags": {"name": "Spyrlaczowa Jama", "natural": "cave_entrance"}}, {"type": "node", "id": 1978395294, "lat": 50.1806928, "lon": 19.8348776, "tags": {"name": "Dziurawiec", "natural": "cave_entrance", "tourism": "attraction"}}, {"type": "node", "id": 2229500029, "lat": 50.0653399, "lon": 19.7077559, "tags": {"cave:depth": "0", "cave:length": "54", "name": "Jaskinia nad Matk\u0105 Bosk\u0105", "natural": "cave_entrance", "ref": "J.GT-03.13", "source": "http://jaskiniepolski.pgi.gov.pl/Details/Information/2244", "wikidata": "Q80413740", "wikipedia": "pl:Jaskinia nad Matk\u0105 Bosk\u0105"}}, {"type": "node", "id": 2232493603, "lat": 50.0721939, "lon": 19.7058023, "tags": {"name": "Jaskinia na \u0141opiankach", "natural": "cave_entrance", "wikidata": "Q11721294", "wikipedia": "pl:Jaskinia na \u0141opiankach"}}, {"type": "node", "id": 2450299285, "lat": 50.1562945, "lon": 19.7549951, "tags": {"name": "Gara\u017c", "natural": "cave_entrance"}}, {"type": "node", "id": 2674865393, "lat": 50.0397151, "lon": 19.9158179, "tags": {"access": "no", "entrance": "yes", "name": "Kawerna Magazyn", "natural": "cave_entrance", "website": "https://opencaching.pl/viewcache.php?cacheid=30304;https://pl.wikipedia.org/wiki/Kawerna_Magazyn", "wheelchair": "no", "wikidata": "Q73387278", "wikipedia": "pl:Kawerna Magazyn"}}, {"type": "node", "id": 2686908388, "lat": 50.1921577, "lon": 19.8357061, "tags": {"name": "Jaskinia Okopy Wielka Dolna", "natural": "cave_entrance"}}, {"type": "node", "id": 2686908389, "lat": 50.191597, "lon": 19.8350288, "tags": {"fixme": "lokalizacja jaskini \"Jaskinia Okopy Wielka G\u00f3rna\" przybli\u017cona", "name": "Jaskinia Okopy Wielka G\u00f3rna", "natural": "cave_entrance"}}, {"type": "node", "id": 2694611869, "lat": 50.0389226, "lon": 19.9024457, "tags": {"cave:depth": "13", "cave:length": "500", "name": "Grota Twardowskiego", "natural": "cave_entrance", "ref": "J.BK-02.10", "source": "http://jaskiniepolski.pgi.gov.pl/Details/Information/2077", "wikidata": "Q11721274", "wikipedia": "pl:Jaskinia Twardowskiego"}}, {"type": "node", "id": 2898079329, "lat": 50.2253064, "lon": 19.8291173, "tags": {"name": "Jaskinia nad Mosurem Starym", "natural": "cave_entrance", "note": "Mo\u017cliwa czysta penetracja", "wheelchair": "no"}}, {"type": "node", "id": 2960068747, "lat": 50.1740673, "lon": 19.8063026, "tags": {"access": "private", "barrier": "gate", "name": "Jaskinia Wierzchowska G\u00f3rna", "natural": "cave_entrance"}}, {"type": "node", "id": 3078011838, "lat": 50.0997182, "lon": 19.6967676, "tags": {"access": "yes", "fee": "no", "name": "Pa\u0144skie K\u0105ty", "natural": "cave_entrance", "source": "survey"}}, {"type": "node", "id": 3401412614, "lat": 50.0318394, "lon": 19.6692599, "tags": {"access": "yes", "fee": "no", "name": "Jaskinia Przegi\u0144ska", "natural": "cave_entrance", "opening_hours": "24/7", "source": "survey", "wheelchair": "no", "wikidata": "Q92285360"}}, {"type": "node", "id": 3424490422, "lat": 50.0366236, "lon": 19.8989656, "tags": {"access": "no", "name": "Jaskinia Pychowicka", "natural": "cave_entrance", "wikidata": "Q75558921", "wikipedia": "pl:Jaskinia Pychowicka"}}, {"type": "node", "id": 3437878184, "lat": 50.0327983, "lon": 19.8814032, "tags": {"access": "yes", "fee": "no", "name": "Kawerna Pychowice III", "natural": "cave_entrance"}}, {"type": "node", "id": 3437880299, "lat": 50.0325714, "lon": 19.881594, "tags": {"access": "yes", "fee": "no", "name": "Kawerna Pychowice II", "natural": "cave_entrance"}}, {"type": "node", "id": 3437906680, "lat": 50.039931, "lon": 19.9146992, "tags": {"fee": "no", "name": "Jaskinia Musza", "natural": "cave_entrance", "website": "http://geoportal.pgi.gov.pl/jaskinie-pub/jaskinie/list"}}, {"type": "node", "id": 3437920603, "lat": 50.0399049, "lon": 19.91716, "tags": {"name": "Rurka", "natural": "cave_entrance", "website": "http://geoportal.pgi.gov.pl/jaskinie-pub/jaskinie/list"}}, {"type": "node", "id": 3437925104, "lat": 50.0516378, "lon": 19.9136094, "tags": {"name": "Schronisko pod Klasztorem Norbertanek", "natural": "cave_entrance", "source:natural": "http://geoportal.pgi.gov.pl/jaskinie-pub/jaskinie/list"}}, {"type": "node", "id": 4002924417, "lat": 50.2035071, "lon": 19.8048883, "tags": {"name": "Bia\u0142a", "natural": "cave_entrance"}}, {"type": "node", "id": 4002924419, "lat": 50.212849, "lon": 19.8320139, "tags": {"name": "Dziurawiec", "natural": "cave_entrance"}}, {"type": "node", "id": 4002924420, "lat": 50.2106155, "lon": 19.7988461, "tags": {"name": "G\u00f3ralska", "natural": "cave_entrance"}}, {"type": "node", "id": 4002924421, "lat": 50.2031395, "lon": 19.8029828, "tags": {"name": "Jama Ani", "natural": "cave_entrance"}}, {"type": "node", "id": 4002924422, "lat": 50.2016799, "lon": 19.824236, "tags": {"name": "Jama Ma\u0142a", "natural": "cave_entrance"}}, {"type": "node", "id": 4002924424, "lat": 50.2191109, "lon": 19.7961328, "tags": {"name": "Koziarnia", "natural": "cave_entrance"}}, {"type": "node", "id": 4002924425, "lat": 50.2039016, "lon": 19.8061607, "tags": {"name": "Krakowska", "natural": "cave_entrance"}}, {"type": "node", "id": 4002924426, "lat": 50.1968259, "lon": 19.8289049, "tags": {"name": "Krowia", "natural": "cave_entrance", "wikidata": "Q56329051", "wikipedia": "pl:Jaskinia Krowia"}}, {"type": "node", "id": 4002924429, "lat": 50.1894708, "lon": 19.8374221, "tags": {"name": "Puchacza", "natural": "cave_entrance"}}, {"type": "node", "id": 4002924431, "lat": 50.2054401, "lon": 19.8086009, "tags": {"name": "Pustelnia", "natural": "cave_entrance"}}, {"type": "node", "id": 4002924432, "lat": 50.220484, "lon": 19.7964557, "tags": {"name": "Sadlana", "natural": "cave_entrance"}}, {"type": "node", "id": 4002924433, "lat": 50.2062133, "lon": 19.810575, "tags": {"access": "permissive", "description": "Po\u0142o\u017cona na terenie w Ojcowskiego Parku Narodowego. Jaskinia o poziomym rozwini\u0119ciu.", "name": "Jaskinia S\u0105spowska", "natural": "cave_entrance", "wikidata": "Q11721272", "wikipedia": "pl:Jaskinia S\u0105spowska"}}, {"type": "node", "id": 4002924434, "lat": 50.207525, "lon": 19.8130553, "tags": {"name": "Wylotne", "natural": "cave_entrance"}}, {"type": "node", "id": 4002924435, "lat": 50.2049592, "lon": 19.8136983, "tags": {"name": "Zb\u00f3jecka", "natural": "cave_entrance"}}, {"type": "node", "id": 4002924436, "lat": 50.2040634, "lon": 19.8099563, "tags": {"name": "Z\u0142odziejska", "natural": "cave_entrance"}}, {"type": "node", "id": 4002924448, "lat": 50.1860449, "lon": 19.8014595, "tags": {"name": "\u017bytnia", "natural": "cave_entrance"}}, {"type": "node", "id": 4988311148, "lat": 50.1649057, "lon": 19.7031826, "tags": {"name": "Jaskinia bez Nazwy", "natural": "cave_entrance"}}, {"type": "node", "id": 5046410736, "lat": 50.0414084, "lon": 19.8007235, "tags": {"name": "Jaskinia Kryspinowska", "natural": "cave_entrance", "wikidata": "Q11721221", "wikipedia": "pl:Jaskinia Kryspinowska"}}, {"type": "node", "id": 5266083304, "lat": 50.0393236, "lon": 19.9031087, "tags": {"access": "yes", "fee": "no", "name": "Okienko Zb\u00f3jnickie", "natural": "cave_entrance", "wikidata": "Q86675911", "wikipedia": "pl:Okienko Zb\u00f3jnickie"}}, {"type": "node", "id": 5716979231, "lat": 50.056549, "lon": 19.8924044, "tags": {"name": "Kawerna Ko\u015bciuszko", "natural": "cave_entrance"}}, {"type": "node", "id": 7489961279, "lat": 50.1546667, "lon": 19.8196666, "tags": {"cave:length": "3", "name": "Szczelina w Szerokiej", "natural": "cave_entrance", "ref": "J.Olk.I-04.33", "source": "http://jaskiniepolski.pgi.gov.pl/Details/Information/10966"}}, {"type": "node", "id": 7490020636, "lat": 50.1625, "lon": 19.7661111, "tags": {"cave:length": "8", "name": "Schronisko na Kawcu", "natural": "cave_entrance", "ref": "J.Olk.I-06.32", "source": "http://jaskiniepolski.pgi.gov.pl/Details/Information/1895", "wikidata": "Q86680886", "wikipedia": "pl:Schronisko na Kawcu"}}, {"type": "node", "id": 7490603364, "lat": 50.148927, "lon": 19.738299, "tags": {"cave:depth": "0", "cave:length": "2", "name": "Schronisko w \u0141\u0105czkach II", "natural": "cave_entrance", "ref": "J.Olk.I-07.02", "source": "http://jaskiniepolski.pgi.gov.pl/Details/Information/1952", "website": "https://pl.wikipedia.org/wiki/Schronisko_w_%C5%81%C4%85czkach_Drugie"}}, {"type": "node", "id": 7490603366, "lat": 50.1891667, "lon": 19.7683333, "tags": {"cave:depth": "0", "cave:length": "5", "name": "Tunel po\u015bredni w Wielkiej Skale", "natural": "cave_entrance", "ref": "J.Olk.I-07.42", "source": "http://jaskiniepolski.pgi.gov.pl/Details/Information/2026"}}, {"type": "node", "id": 7490603368, "lat": 50.1751944, "lon": 19.7453056, "tags": {"cave:depth": "0", "cave:length": "4", "name": "Grota z Drzewem", "natural": "cave_entrance", "ref": "J.Olk.I-07.91", "source": "http://jaskiniepolski.pgi.gov.pl/Details/Information/11153"}}, {"type": "node", "id": 7525593119, "lat": 50.0406198, "lon": 19.9145721, "tags": {"access": "private", "name": "Jaskinia przed \u201eProblem\u00f3wk\u0105\u201d", "natural": "cave_entrance"}}, {"type": "node", "id": 7525642742, "lat": 50.0400551, "lon": 19.9137218, "tags": {"name": "Jaskinia Koguta", "natural": "cave_entrance", "wikidata": "Q86677185", "wikipedia": "pl:Jaskinia Koguta"}}, {"type": "node", "id": 7525680152, "lat": 50.0388185, "lon": 19.9017713, "tags": {"cave:depth": "3", "cave:length": "15", "name": "Jaskinia pod Ny\u017c\u0105", "natural": "cave_entrance", "ref": "J.BK-02.12", "source": "http://jaskiniepolski.pgi.gov.pl/Details/Information/2079", "wikidata": "Q86675991", "wikipedia": "pl:Jaskinia pod Ny\u017c\u0105"}}, {"type": "node", "id": 7525715854, "lat": 50.0404658, "lon": 19.916882, "tags": {"access": "private", "alt_name": "Schronisko w kamienio\u0142omie I", "name": "Jaskinia w Anastomozach", "natural": "cave_entrance", "wikidata": "Q86676642", "wikipedia": "pl:Jaskinia w Anastomozach"}}, {"type": "node", "id": 7525715945, "lat": 50.0387161, "lon": 19.9010465, "tags": {"cave:depth": "11", "cave:length": "100", "name": "Jaskinia z Kulkami", "natural": "cave_entrance", "ref": "J.BK-02.13", "source": "http://jaskiniepolski.pgi.gov.pl/Details/Information/2080", "wikidata": "Q71309150", "wikipedia": "pl:Jaskinia z Kulkami"}}, {"type": "node", "id": 7525721609, "lat": 50.0408217, "lon": 19.9158677, "tags": {"access": "private", "name": "Schronisko nad \"Sadyst\u00f3wk\u0105\"", "natural": "cave_entrance"}}, {"type": "node", "id": 7525721611, "lat": 50.0369449, "lon": 19.8988847, "tags": {"name": "Tunel w Pychowicach", "natural": "cave_entrance"}}, {"type": "node", "id": 7525735445, "lat": 50.0388514, "lon": 19.9020301, "tags": {"cave:depth": "3", "cave:length": "40", "name": "Jaskinia Niska", "natural": "cave_entrance", "ref": "J.BK-02.11", "source": "http://jaskiniepolski.pgi.gov.pl/Details/Information/2078", "wikidata": "Q76978106", "wikipedia": "pl:Jaskinia Niska (Zakrz\u00f3wek)"}}, {"type": "node", "id": 7525737208, "lat": 50.0388642, "lon": 19.9006976, "tags": {"cave:length": "24", "name": "Jaskinia Wywiew", "natural": "cave_entrance", "ref": "J.BK-02.14", "source": "http://jaskiniepolski.pgi.gov.pl/Details/Information/2081", "wikidata": "Q86676003", "wikipedia": "pl:Wywiew"}}, {"type": "node", "id": 7525744140, "lat": 50.0345017, "lon": 19.8709331, "tags": {"name": "Jaskinia pod Fortem", "natural": "cave_entrance"}}, {"type": "node", "id": 7560186718, "lat": 50.1902854, "lon": 19.6646074, "tags": {"cave:depth": "26", "cave:difficulty": "climbing_gear", "cave:equipment": "climbing_gear", "cave:length": "168", "ele": "446", "fee": "no", "name": "Jaskinia Rac\u0142awicka (Grzmi\u0105czka)", "natural": "cave_entrance"}}, {"type": "node", "id": 7775495751, "lat": 50.0345681, "lon": 19.869277, "tags": {"name": "Kawerna Bodz\u00f3w 4", "natural": "cave_entrance"}}, {"type": "node", "id": 7775495752, "lat": 50.034458, "lon": 19.8690302, "tags": {"name": "Kawerna Bodz\u00f3w 3", "natural": "cave_entrance"}}, {"type": "node", "id": 7775495753, "lat": 50.0344442, "lon": 19.8688807, "tags": {"name": "Kawerna Bodz\u00f3w 2", "natural": "cave_entrance"}}, {"type": "node", "id": 7775495754, "lat": 50.0343981, "lon": 19.8685716, "tags": {"name": "Kawerna Bodz\u00f3w 1", "natural": "cave_entrance"}}, {"type": "node", "id": 7775495755, "lat": 50.0340732, "lon": 19.8688928, "tags": {"name": "Kawerna Bodz\u00f3w 6", "natural": "cave_entrance"}}, {"type": "node", "id": 7900441801, "lat": 50.181169, "lon": 19.7886067, "tags": {"access": "yes", "direction": "45", "ele": "462", "fee": "no", "name": "Schronisko B\u0119dkowskie G\u00f3rne", "natural": "cave_entrance", "source": "http://jaskiniepolski.pgi.gov.pl/Details/Information/11283"}}, {"type": "node", "id": 7900473777, "lat": 50.1812426, "lon": 19.7885008, "tags": {"access": "yes", "direction": "45", "ele": "452", "fee": "no", "name": "Schronisko B\u0119b\u0142owskie Dolne", "natural": "cave_entrance"}}, {"type": "node", "id": 8004615507, "lat": 50.1853509, "lon": 19.7492938, "tags": {"name": "Jaskinia Dziewicza", "natural": "cave_entrance", "wikidata": "Q11721198", "wikipedia": "pl:Jaskinia Dziewicza"}}, {"type": "node", "id": 8299850571, "lat": 50.0394885, "lon": 19.8364199, "tags": {"name": "Kawerna Bielany", "natural": "cave_entrance"}}, {"type": "node", "id": 8300716255, "lat": 50.0221715, "lon": 19.8596905, "tags": {"name": "Kawerna Winnica II", "natural": "cave_entrance"}}, {"type": "node", "id": 8300716256, "lat": 50.0220335, "lon": 19.8612299, "tags": {"name": "Kawerna Winnica I", "natural": "cave_entrance"}}, {"type": "node", "id": 8324461787, "lat": 50.0960865, "lon": 20.0382108, "tags": {"name": "Kawerna D\u0142ubnia", "natural": "cave_entrance"}}, {"type": "node", "id": 8324491948, "lat": 50.1060488, "lon": 19.9463949, "tags": {"access": "no", "name": "Kawerna Witkowice", "natural": "cave_entrance"}}, {"type": "node", "id": 8324550822, "lat": 49.9952554, "lon": 19.9867545, "tags": {"access": "no", "name": "Kawerna Kosocice", "natural": "cave_entrance"}}, {"type": "node", "id": 8665204192, "lat": 50.0180028, "lon": 19.7950132, "tags": {"access": "permissive", "direction": "-70", "fee": "no", "name": "Kawernia w Piekarach", "natural": "cave_entrance"}}, {"type": "node", "id": 8910485255, "lat": 50.1489368, "lon": 19.7383147, "tags": {"cave:depth": "0", "cave:length": "4", "name": "Schronisko w \u0141\u0105czkach III", "natural": "cave_entrance", "ref": "J.Olk.I-07.03", "source": "http://jaskiniepolski.pgi.gov.pl/Details/Information/1953", "website": "https://pl.wikipedia.org/wiki/Schronisko_w_%C5%81%C4%85czkach_Trzecie"}}, {"type": "node", "id": 8910516619, "lat": 50.1489302, "lon": 19.7382835, "tags": {"cave:depth": "0", "cave:length": "5", "name": "Schronisko w \u0141\u0105czkach I", "natural": "cave_entrance", "ref": "J.Olk.I-07.01", "source": "http://jaskiniepolski.pgi.gov.pl/Details/Information/1951", "website": "https://pl.wikipedia.org/wiki/Schronisko_w_%C5%81%C4%85czkach_Pierwsze"}}, {"type": "node", "id": 9343729112, "lat": 50.1737136, "lon": 19.6776462, "tags": {"direction": "260", "name": "Schronisko K_Sandry", "natural": "cave_entrance", "source": "survey;gps"}}, {"type": "node", "id": 9654922561, "lat": 50.1765582, "lon": 19.848284, "tags": {"name": "Jaskinia Zamieszka\u0142a Du\u017ca", "natural": "cave_entrance"}}, {"type": "node", "id": 9654922624, "lat": 50.1753989, "lon": 19.8489029, "tags": {"natural": "cave_entrance"}}, {"type": "node", "id": 9656015644, "lat": 50.1765979, "lon": 19.8090121, "tags": {"ele": "427", "name": "Schronisko w Kamienio\u0142omie", "natural": "cave_entrance"}}, {"type": "node", "id": 10765913959, "lat": 50.0662978, "lon": 19.6746135, "tags": {"natural": "cave_entrance"}}, {"type": "node", "id": 10942799640, "lat": 50.0921943, "lon": 19.6778986, "tags": {"alt_name": "Jaskinia w Zalasie", "alt_name:en": "Jaskinia nad Samcowym Polem", "alt_name:zh": "Tunel w Kopcach", "name": "Jaskinia pod Baczynem", "natural": "cave_entrance", "source": "https://geotyda.pl/miejsca/kra/jaskinia_pod_baczynem.php", "wikidata": "Q11721257", "wikipedia": "pl:Jaskinia nad Samcowym Polem"}}, {"type": "node", "id": 11063996763, "lat": 50.1571262, "lon": 19.7838886, "tags": {"natural": "cave_entrance"}}, {"type": "node", "id": 12141879911, "lat": 50.0649147, "lon": 19.7069776, "tags": {"cave:depth": "0", "cave:length": "26", "name": "Jaskinia za Matk\u0105 Bosk\u0105", "natural": "cave_entrance"}}, {"type": "node", "id": 12231292894, "lat": 50.2227888, "lon": 19.7718477, "tags": {"name": "Pod Ko\u015bcio\u0142em Wschodnia", "natural": "cave_entrance"}}, {"type": "node", "id": 12231313828, "lat": 50.2229888, "lon": 19.7717191, "tags": {"name": "Pod Ko\u015bcio\u0142em Zachodnia", "natural": "cave_entrance"}}, {"type": "node", "id": 12759637452, "lat": 50.1831026, "lon": 19.752397, "tags": {"name": "Jaskinia Ma\u0142otowa", "natural": "cave_entrance", "wikidata": "Q60855727", "wikipedia": "pl:Jaskinia Ma\u0142otowa"}}, {"type": "node", "id": 13020826129, "lat": 50.1420016, "lon": 19.8465623, "tags": {"cave:depth": "1.4", "cave:length": "14.2", "name": "Schronisko Wilczy Skok", "natural": "cave_entrance"}}, {"type": "node", "id": 13020852274, "lat": 50.1475044, "lon": 19.6644059, "tags": {"cave:depth": "0", "cave:length": "45.5", "name": "Wielki Okap pod Matk\u0105 Bosk\u0105", "natural": "cave_entrance"}}, {"type": "node", "id": 13021090592, "lat": 50.1668699, "lon": 19.7482999, "tags": {"cave:depth": "0", "cave:length": "18", "name": "Komin B\u0119dkowicki", "natural": "cave_entrance"}}, {"type": "node", "id": 13287884070, "lat": 50.1642456, "lon": 19.8187163, "tags": {"name": "Jaskinia w M\u0105cznej Skale Ma\u0142a", "natural": "cave_entrance"}}, {"type": "node", "id": 13287984884, "lat": 50.1639923, "lon": 19.8196202, "tags": {"fee": "no", "name": "Jaskinia w M\u0105cznej Skale Du\u017ca", "natural": "cave_entrance"}}, {"type": "node", "id": 13288004987, "lat": 50.151079, "lon": 19.8154095, "tags": {"name": "Jaskinia Wielkowiejska", "natural": "cave_entrance"}}, {"type": "node", "id": 13289528084, "lat": 50.1098964, "lon": 19.7376583, "tags": {"name": "Jaskinia Le\u015bnych Skrzat\u00f3w", "natural": "cave_entrance"}}, {"type": "node", "id": 13289540852, "lat": 50.0612456, "lon": 19.6478056, "tags": {"name": "Jaskinia przy Wsi Rybnej", "natural": "cave_entrance"}}, {"type": "node", "id": 13289541416, "lat": 50.072922, "lon": 19.7056533, "tags": {"name": "Jaskinia na \u0141opiankach II", "natural": "cave_entrance"}}, {"type": "node", "id": 13289566827, "lat": 50.0625955, "lon": 19.6482477, "tags": {"name": "Jaskinia Skryta", "natural": "cave_entrance"}}, {"type": "node", "id": 13289581085, "lat": 50.1903844, "lon": 19.6640153, "tags": {"name": "Jaskinia Graniczna", "natural": "cave_entrance"}}, {"type": "node", "id": 13289596056, "lat": 50.1724258, "lon": 19.6824021, "tags": {"name": "Jaskinia Beczkowa", "natural": "cave_entrance"}}, {"type": "node", "id": 13312186173, "lat": 50.177688, "lon": 19.7424163, "tags": {"name": "Jaskinia Bezsenna", "natural": "cave_entrance"}}, {"type": "node", "id": 13446895552, "lat": 50.156613, "lon": 19.7356809, "tags": {"access": "yes", "fee": "no", "name": "Jaskinia Bojowa", "natural": "cave_entrance"}}, {"type": "node", "id": 13566924906, "lat": 50.0418091, "lon": 19.7994996, "tags": {"crfop:inscription_date": "1987-06-09", "denotation": "natural_monument", "name": "Uroczysko Kryspin\u00f3w", "natural": "cave_entrance", "protected": "yes", "ref:CRFOP": "85248", "ref:gid": "68812", "ref:inspire": "PL.ZIPOP.1393.PP.1206072.456", "website": "https://crfop.gdos.gov.pl/CRFOP/widok/viewpomnikprzyrody.jsf?fop=PL.ZIPOP.1393.PP.1206072.456"}}]}